{"type": "FeatureCollection", "features": [ {"type": "Feature", "properties": {"norad_id": 66946, "name": "STARLINK-36115", "group": "last-30-days", "lat": -5.322141468011643, "lon": 29.20767771231577, "alt_km": 303.70578866757387, "timestamp": "2025-12-16T03:53:25.818661+00:00", "meta": {"OBJECT_NAME": "STARLINK-36115", "OBJECT_ID": "2025-286X", "EPOCH": "2025-12-15T06:00:04.999968", "MEAN_MOTION": 15.92693067, "ECCENTRICITY": 9.278e-05, "INCLINATION": 53.1562, "RA_OF_ASC_NODE": 37.8566, "ARG_OF_PERICENTER": 85.1184, "MEAN_ANOMALY": 80.247, "EPHEMERIS_TYPE": 0, "CLASSIFICATION_TYPE": "U", "NORAD_CAT_ID": 66946, "ELEMENT_SET_NO": 999, "REV_AT_EPOCH": 239, "BSTAR": -0.0043489398, "MEAN_MOTION_DOT": -0.01526134, "MEAN_MOTION_DDOT": 0.00066493329}, "tle": {"line1": "1 66946U 25286X   25349.25005787 -.01526134  66493-3 -43489-2 0  9996", "line2": "2 66946  53.1562  37.8566 0000927  85.1184  80.2470 15.92693067  2398"}}, "geometry": {"type": "Point", "coordinates": [29.20767771231577, -5.322141468011643]}}, {"type": "Feature", "properties": {"norad_id": 66947, "name": "STARLINK-36089", "group": "last-30-days", "lat": -1.9532368373010531, "lon": 31.739191661305515, "alt_km": 302.99376657202083, "timestamp": "2025-12-16T03:53:25.818675+00:00", "meta": {"OBJECT_NAME": "STARLINK-36089", "OBJECT_ID": "2025-286Y", "EPOCH": "2025-12-15T06:00:04.999968", "MEAN_MOTION": 15.9281159, "ECCENTRICITY": 0.00010094, "INCLINATION": 53.1562, "RA_OF_ASC_NODE": 37.8486, "ARG_OF_PERICENTER": 78.5227, "MEAN_ANOMALY": 90.7215, "EPHEMERIS_TYPE": 0, "CLASSIFICATION_TYPE": "U", "NORAD_CAT_ID": 66947, "ELEMENT_SET_NO": 999, "REV_AT_EPOCH": 239, "BSTAR": -0.0043752865, "MEAN_MOTION_DOT": -0.01544701, "MEAN_MOTION_DDOT": 0.00068061673}, "tle": {"line1": "1 66947U 25286Y   25349.25005787 -.01544701  68062-3 -43753-2 0  9995", "line2": "2 66947  53.1562  37.8486 0001009  78.5227  90.7215 15.92811590  2392"}}, "geometry": {"type": "Point", "coordinates": [31.739191661305515, -1.9532368373010531]}}, {"type": "Feature", "properties": {"norad_id": 66948, "name": "STARLINK-36116", "group": "last-30-days", "lat": -3.4142638829433594, "lon": 30.64432247352191, "alt_km": 303.35347431051105, "timestamp": "2025-12-16T03:53:25.818685+00:00", "meta": {"OBJECT_NAME": "STARLINK-36116", "OBJECT_ID": "2025-286Z", "EPOCH": "2025-12-15T06:00:04.999968", "MEAN_MOTION": 15.92757698, "ECCENTRICITY": 8.772e-05, "INCLINATION": 53.1563, "RA_OF_ASC_NODE": 37.8521, "ARG_OF_PERICENTER": 89.3209, "MEAN_ANOMALY": 78.249, "EPHEMERIS_TYPE": 0, "CLASSIFICATION_TYPE": "U", "NORAD_CAT_ID": 66948, "ELEMENT_SET_NO": 999, "REV_AT_EPOCH": 239, "BSTAR": -0.0043642191, "MEAN_MOTION_DOT": -0.0153654, "MEAN_MOTION_DDOT": 0.00067368699}, "tle": {"line1": "1 66948U 25286Z   25349.25005787 -.01536540  67369-3 -43642-2 0  9994", "line2": "2 66948  53.1563  37.8521 0000877  89.3209  78.2490 15.92757698  2390"}}, "geometry": {"type": "Point", "coordinates": [30.64432247352191, -3.4142638829433594]}}, {"type": "Feature", "properties": {"norad_id": 66949, "name": "STARLINK-36096", "group": "last-30-days", "lat": -0.4357297365114762, "lon": 32.873951884774044, "alt_km": 302.67373377261356, "timestamp": "2025-12-16T03:53:25.818696+00:00", "meta": {"OBJECT_NAME": "STARLINK-36096", "OBJECT_ID": "2025-286AA", "EPOCH": "2025-12-15T06:00:04.999968", "MEAN_MOTION": 15.92862888, "ECCENTRICITY": 8.701e-05, "INCLINATION": 53.1564, "RA_OF_ASC_NODE": 37.8451, "ARG_OF_PERICENTER": 90.2142, "MEAN_ANOMALY": 80.7447, "EPHEMERIS_TYPE": 0, "CLASSIFICATION_TYPE": "U", "NORAD_CAT_ID": 66949, "ELEMENT_SET_NO": 999, "REV_AT_EPOCH": 239, "BSTAR": -0.0043515805, "MEAN_MOTION_DOT": -0.015405, "MEAN_MOTION_DDOT": 0.00067757113}, "tle": {"line1": "1 66949U 25286AA  25349.25005787 -.01540500  67757-3 -43516-2 0  9997", "line2": "2 66949  53.1564  37.8451 0000870  90.2142  80.7447 15.92862888  2392"}}, "geometry": {"type": "Point", "coordinates": [32.873951884774044, -0.4357297365114762]}}, {"type": "Feature", "properties": {"norad_id": 66950, "name": "STARLINK-36111", "group": "last-30-days", "lat": 2.706314368804513, "lon": 35.22383656343589, "alt_km": 301.89577874252063, "timestamp": "2025-12-16T03:53:25.818706+00:00", "meta": {"OBJECT_NAME": "STARLINK-36111", "OBJECT_ID": "2025-286AB", "EPOCH": "2025-12-15T06:00:04.999968", "MEAN_MOTION": 15.92972002, "ECCENTRICITY": 0.00010017, "INCLINATION": 53.1564, "RA_OF_ASC_NODE": 37.8377, "ARG_OF_PERICENTER": 80.7303, "MEAN_ANOMALY": 93.8245, "EPHEMERIS_TYPE": 0, "CLASSIFICATION_TYPE": "U", "NORAD_CAT_ID": 66950, "ELEMENT_SET_NO": 999, "REV_AT_EPOCH": 239, "BSTAR": -0.0043533769, "MEAN_MOTION_DOT": -0.01549874, "MEAN_MOTION_DDOT": 0.00068588093}, "tle": {"line1": "1 66950U 25286AB  25349.25005787 -.01549874  68588-3 -43534-2 0  9995", "line2": "2 66950  53.1564  37.8377 0001001  80.7303  93.8245 15.92972002  2392"}}, "geometry": {"type": "Point", "coordinates": [35.22383656343589, 2.706314368804513]}}, {"type": "Feature", "properties": {"norad_id": 66951, "name": "STARLINK-35999", "group": "last-30-days", "lat": 4.374826801319664, "lon": 36.47675399857296, "alt_km": 301.47031078464806, "timestamp": "2025-12-16T03:53:25.818716+00:00", "meta": {"OBJECT_NAME": "STARLINK-35999", "OBJECT_ID": "2025-286AC", "EPOCH": "2025-12-15T06:00:04.999968", "MEAN_MOTION": 15.93033531, "ECCENTRICITY": 9.399e-05, "INCLINATION": 53.1564, "RA_OF_ASC_NODE": 37.8336, "ARG_OF_PERICENTER": 78.8105, "MEAN_ANOMALY": 97.6557, "EPHEMERIS_TYPE": 0, "CLASSIFICATION_TYPE": "U", "NORAD_CAT_ID": 66951, "ELEMENT_SET_NO": 999, "REV_AT_EPOCH": 239, "BSTAR": -0.0043675195, "MEAN_MOTION_DOT": -0.01559798, "MEAN_MOTION_DDOT": 0.00069437186}, "tle": {"line1": "1 66951U 25286AC  25349.25005787 -.01559798  69437-3 -43675-2 0  9992", "line2": "2 66951  53.1564  37.8336 0000939  78.8105  97.6557 15.93033531  2399"}}, "geometry": {"type": "Point", "coordinates": [36.47675399857296, 4.374826801319664]}}, {"type": "Feature", "properties": {"norad_id": 66952, "name": "STARLINK-36122", "group": "last-30-days", "lat": 1.1629769708398254, "lon": 34.06884843571989, "alt_km": 302.17252608059334, "timestamp": "2025-12-16T03:53:25.818727+00:00", "meta": {"OBJECT_NAME": "STARLINK-36122", "OBJECT_ID": "2025-286AD", "EPOCH": "2025-12-15T06:00:04.999968", "MEAN_MOTION": 15.92918052, "ECCENTRICITY": 9.868e-05, "INCLINATION": 53.1564, "RA_OF_ASC_NODE": 37.8414, "ARG_OF_PERICENTER": 75.6847, "MEAN_ANOMALY": 97.1093, "EPHEMERIS_TYPE": 0, "CLASSIFICATION_TYPE": "U", "NORAD_CAT_ID": 66952, "ELEMENT_SET_NO": 999, "REV_AT_EPOCH": 239, "BSTAR": -0.0043568355, "MEAN_MOTION_DOT": -0.01546761, "MEAN_MOTION_DDOT": 0.0006829948}, "tle": {"line1": "1 66952U 25286AD  25349.25005787 -.01546761  68299-3 -43568-2 0  9995", "line2": "2 66952  53.1564  37.8414 0000986  75.6847  97.1093 15.92918052  2396"}}, "geometry": {"type": "Point", "coordinates": [34.06884843571989, 1.1629769708398254]}}, {"type": "Feature", "properties": {"norad_id": 66953, "name": "HULIANWANG DIGUI-114", "group": "last-30-days", "lat": 55.51739083241098, "lon": 159.79149433549972, "alt_km": 996.9675501727106, "timestamp": "2025-12-16T03:53:25.818737+00:00", "meta": {"OBJECT_NAME": "HULIANWANG DIGUI-114", "OBJECT_ID": "2025-287A", "EPOCH": "2025-12-11T05:43:48.442368", "MEAN_MOTION": 13.68688345, "ECCENTRICITY": 0.00085506, "INCLINATION": 86.4966, "RA_OF_ASC_NODE": 346.7027, "ARG_OF_PERICENTER": 209.4482, "MEAN_ANOMALY": 150.6197, "EPHEMERIS_TYPE": 0, "CLASSIFICATION_TYPE": "U", "NORAD_CAT_ID": 66953, "ELEMENT_SET_NO": 999, "REV_AT_EPOCH": 32, "BSTAR": 1.3583638e-05, "MEAN_MOTION_DOT": 2.8e-07, "MEAN_MOTION_DDOT": 0}, "tle": {"line1": "1 66953U 25287A   25345.23875512  .00000028  00000+0  13584-4 0  9999", "line2": "2 66953  86.4966 346.7027 0008550 209.4482 150.6197 13.68688345   322"}}, "geometry": {"type": "Point", "coordinates": [159.79149433549972, 55.51739083241098]}}, {"type": "Feature", "properties": {"norad_id": 66954, "name": "HULIANWANG DIGUI-115", "group": "last-30-days", "lat": 52.895511819381205, "lon": 160.26664434939667, "alt_km": 996.4265231646405, "timestamp": "2025-12-16T03:53:25.818750+00:00", "meta": {"OBJECT_NAME": "HULIANWANG DIGUI-115", "OBJECT_ID": "2025-287B", "EPOCH": "2025-12-15T06:13:08.738688", "MEAN_MOTION": 13.6879189, "ECCENTRICITY": 0.0008784, "INCLINATION": 86.4971, "RA_OF_ASC_NODE": 345.2403, "ARG_OF_PERICENTER": 196.1208, "MEAN_ANOMALY": 163.9673, "EPHEMERIS_TYPE": 0, "CLASSIFICATION_TYPE": "U", "NORAD_CAT_ID": 66954, "ELEMENT_SET_NO": 999, "REV_AT_EPOCH": 87, "BSTAR": 2.6102444e-05, "MEAN_MOTION_DOT": 3.9e-07, "MEAN_MOTION_DDOT": 0}, "tle": {"line1": "1 66954U 25287B   25349.25912892  .00000039  00000+0  26102-4 0  9991", "line2": "2 66954  86.4971 345.2403 0008784 196.1208 163.9673 13.68791890   874"}}, "geometry": {"type": "Point", "coordinates": [160.26664434939667, 52.895511819381205]}}, {"type": "Feature", "properties": {"norad_id": 66955, "name": "HULIANWANG DIGUI-116", "group": "last-30-days", "lat": 49.982737634151384, "lon": 160.7094435319183, "alt_km": 995.8311245444756, "timestamp": "2025-12-16T03:53:25.818763+00:00", "meta": {"OBJECT_NAME": "HULIANWANG DIGUI-116", "OBJECT_ID": "2025-287C", "EPOCH": "2025-12-14T02:08:18.133728", "MEAN_MOTION": 13.68903211, "ECCENTRICITY": 0.00080818, "INCLINATION": 86.4907, "RA_OF_ASC_NODE": 345.6576, "ARG_OF_PERICENTER": 193.9217, "MEAN_ANOMALY": 166.172, "EPHEMERIS_TYPE": 0, "CLASSIFICATION_TYPE": "U", "NORAD_CAT_ID": 66955, "ELEMENT_SET_NO": 999, "REV_AT_EPOCH": 71, "BSTAR": 2.5654516e-05, "MEAN_MOTION_DOT": 3.9e-07, "MEAN_MOTION_DDOT": 0}, "tle": {"line1": "1 66955U 25287C   25348.08909877  .00000039  00000+0  25655-4 0  9993", "line2": "2 66955  86.4907 345.6576 0008081 193.9217 166.1720 13.68903211   717"}}, "geometry": {"type": "Point", "coordinates": [160.7094435319183, 49.982737634151384]}}]}